NORAD_CAT_ID,OBJECT_NAME,OBJECT_TYPE,EPOCH,MEAN_MOTION,ECCENTRICITY,INCLINATION,RA_OF_ASC_NODE,ARG_OF_PERICENTER,MEAN_ANOMALY,BSTAR,MEAN_MOTION_DOT,MEAN_MOTION_DDOT,TLE_LINE0,TLE_LINE1,TLE_LINE2,SEMIMAJOR_AXIS,PERIOD,APOGEE,PERIGEE,DECAYED
52555.0,STARLINK-3949,PAYLOAD,2022-10-19 19:51:46,15.08843194,0.0001784,53.2175,281.6038,53.9974,306.1183,0.00022902,3.359e-05,0.0,0 STARLINK-3949,1 52555U 22051Y   22292.82762115  .00003359  00000-0  22902-3 0  9999,2 52555  53.2175 281.6038 0001784  53.9974 306.1183 15.08843194 24722,6917.871,95.437,540.97,538.501,0.0
52555.0,STARLINK-3949,PAYLOAD,2022-10-20 05:24:05,15.08844338,0.0001754999999999,53.2173,279.8194,55.3162,304.7995,0.0002788999999999,4.154e-05,0.0,0 STARLINK-3949,1 52555U 22051Y   22293.22506161  .00004154  00000-0  27890-3 0  9996,2 52555  53.2173 279.8194 0001755  55.3162 304.7995 15.08844338 24855,6917.8669999999975,95.437,540.946,538.518,0.0
52555.0,STARLINK-3949,PAYLOAD,2022-10-20 08:34:51,15.08845795,0.0001791,53.217,279.2249,55.4885,304.6276,0.00031269,4.693e-05,0.0,0 STARLINK-3949,1 52555U 22051Y   22293.35754105  .00004693  00000-0  31269-3 0  9996,2 52555  53.2170 279.2249 0001791  55.4885 304.6276 15.08845795 24804,6917.863,95.437,540.967,538.489,0.0
52555.0,STARLINK-3949,PAYLOAD,2022-10-20 19:42:33,15.08849533,0.0001761,53.217,277.1437,54.6955,305.4202,0.00035669,5.395e-05,0.0,0 STARLINK-3949,1 52555U 22051Y   22293.82121925  .00005395  00000-0  35669-3 0  9994,2 52555  53.2170 277.1437 0001761  54.6955 305.4202 15.08849533 24875,6917.851,95.437,540.934,538.498,0.0
52555.0,STARLINK-3949,PAYLOAD,2022-10-21 05:14:52,15.08843156,0.0001766,53.217,275.3589,56.2712,303.8448,0.00011437,1.533e-05,0.0,0 STARLINK-3949,1 52555U 22051Y   22294.21866005  .00001533  00000-0  11437-3 0  9990,2 52555  53.2170 275.3589 0001766  56.2712 303.8448 15.08843156 25002,6917.871,95.437,540.957,538.514,0.0
52555.0,STARLINK-3949,PAYLOAD,2022-10-21 06:50:15,15.08844021,0.0001793,53.2176,275.0615,55.4465,304.6696,0.00013097,1.797e-05,0.0,0 STARLINK-3949,1 52555U 22051Y   22294.28490023  .00001797  00000-0  13097-3 0  9996,2 52555  53.2176 275.0615 0001793  55.4465 304.6696 15.08844021 24949,6917.868,95.437,540.9730000000002,538.493,0.0
52555.0,STARLINK-3949,PAYLOAD,2022-10-22 08:16:25,15.08845529,0.0001803,53.2177,270.3044,53.7545,306.3613,0.00012534,1.708e-05,0.0,0 STARLINK-3949,1 52555U 22051Y   22295.34473694  .00001708  00000-0  12534-3 0  9996,2 52555  53.2177 270.3044 0001803  53.7545 306.3613 15.08845529 25107,6917.863,95.437,540.976,538.481,0.0
52555.0,STARLINK-3949,PAYLOAD,2022-10-23 08:07:12,15.08848472,0.0001824,53.2178,265.8448,51.121,308.9944,0.0001674,2.378e-05,0.0,0 STARLINK-3949,1 52555U 22051Y   22296.33833460  .00002378  00000-0  16740-3 0  9994,2 52555  53.2178 265.8448 0001824  51.1210 308.9944 15.08848472 25250,6917.854,95.437,540.981,538.4580000000002,0.0
52555.0,STARLINK-3949,PAYLOAD,2022-10-24 03:11:49,15.08852794,0.0001817,53.2184,262.2769,53.4463,306.6697,0.00019394,2.801e-05,0.0,0 STARLINK-3949,1 52555U 22051Y   22297.13320806  .00002801  00000-0  19394-3 0  9997,2 52555  53.2184 262.2769 0001817  53.4463 306.6697 15.08852794 25444,6917.840999999999,95.437,540.9630000000002,538.4490000000002,0.0
52555.0,STARLINK-3949,PAYLOAD,2022-10-24 07:57:58,15.08842566,0.0001724,53.2182,261.3841,54.8303,305.2851,2.9008e-05,1.74e-06,0.0,0 STARLINK-3949,1 52555U 22051Y   22297.33193195  .00000174  00000-0  29008-4 0  9993,2 52555  53.2182 261.3841 0001724  54.8303 305.2851 15.08842566 25474,6917.873000000001,95.437,540.93,538.545,0.0
52555.0,STARLINK-3949,PAYLOAD,2022-10-24 20:41:05,15.08822834,0.0002176,53.2177,259.0027,62.0023,298.119,-0.00017657,-3.096e-05,0.0,0 STARLINK-3949,1 52555U 22051Y   22297.86186728 -.00003096  00000-0 -17657-3 0  9999,2 52555  53.2177 259.0027 0002176  62.0023 298.1190 15.08822834 25483,6917.933000000001,95.439,541.303,538.293,0.0
52555.0,STARLINK-3949,PAYLOAD,2022-10-25 06:13:23,15.08830929,0.0001706,53.2183,257.2214,48.6051,311.5087,-0.00010498,-1.958e-05,0.0,0 STARLINK-3949,1 52555U 22051Y   22298.25930536 -.00001958  00000-0 -10498-3 0  9998,2 52555  53.2183 257.2214 0001706  48.6051 311.5087 15.08830929 25543,6917.908,95.438,540.953,538.5930000000002,0.0
52555.0,STARLINK-3949,PAYLOAD,2022-10-25 14:10:19,15.08835933,0.0001712,53.2188,255.7349,48.6215,311.4924,4.6165e-05,4.47e-06,0.0,0 STARLINK-3949,1 52555U 22051Y   22298.59050770  .00000447  00000-0  46165-4 0  9999,2 52555  53.2188 255.7349 0001712  48.6215 311.4924 15.08835933 25593,6917.893,95.438,540.942,538.573,0.0
52555.0,STARLINK-3949,PAYLOAD,2022-10-26 07:39:35,15.08835667,0.0001751,53.219,252.4637,53.2843,306.8309,-5.618899999999999e-05,-1.182e-05,0.0,0 STARLINK-3949,1 52555U 22051Y   22299.31915535 -.00001182  00000-0 -56189-4 0  9995,2 52555  53.2190 252.4637 0001751  53.2843 306.8309 15.08835667 25771,6917.894,95.438,540.97,538.547,0.0
52555.0,STARLINK-3949,PAYLOAD,2022-10-26 14:01:07,15.08834963,0.0001788,53.2189,251.2746,50.0827,310.0322,8.761299999999999e-05,1.106e-05,0.0,0 STARLINK-3949,1 52555U 22051Y   22299.58411459  .00001106  00000-0  87613-4 0  9990,2 52555  53.2189 251.2746 0001788  50.0827 310.0322 15.08834963 25741,6917.896,95.438,540.998,538.524,0.0
52555.0,STARLINK-3949,PAYLOAD,2022-10-27 05:54:58,15.08847027,0.000178,53.2185,248.3005,52.9192,307.1963,0.00050572,7.771e-05,0.0,0 STARLINK-3949,1 52555U 22051Y   22300.24651473  .00007771  00000-0  50572-3 0  9995,2 52555  53.2185 248.3005 0001780  52.9192 307.1963 15.08847027 25844,6917.859,95.437,540.955,538.493,0.0
52555.0,STARLINK-3949,PAYLOAD,2022-10-27 13:51:54,15.08855272,0.000177,53.2186,246.8138,53.2783,306.8372,0.0003819999999999,5.799e-05,0.0,0 STARLINK-3949,1 52555U 22051Y   22300.57770959  .00005799  00000-0  38200-3 0  9994,2 52555  53.2186 246.8138 0001770  53.2783 306.8372 15.08855272 25890,6917.834,95.437,540.923,538.474,0.0
52555.0,STARLINK-3949,PAYLOAD,2022-10-28 04:10:21,15.08856819,0.0001706,53.218,244.1374,51.8298,308.2848,0.00028902,4.317e-05,0.0,0 STARLINK-3949,1 52555U 22051Y   22301.17386535  .00004317  00000-0  28902-3 0  9997,2 52555  53.2180 244.1374 0001706  51.8298 308.2848 15.08856819 25983,6917.829000000002,95.436,540.874,538.514,0.0
52555.0,STARLINK-3949,PAYLOAD,2022-10-29 07:11:54,15.08850925,0.0001742,53.2193,239.0828,55.5232,304.5924,1.5742e-05,-3.8e-07,0.0,0 STARLINK-3949,1 52555U 22051Y   22302.29994030 -.00000038  00000-0  15742-4 0  9992,2 52555  53.2193 239.0828 0001742  55.5232 304.5924 15.08850925 26227,6917.847,95.437,540.9169999999998,538.507,0.0
52555.0,STARLINK-3949,PAYLOAD,2022-10-29 13:33:27,15.088501999999998,0.0001851,53.2195,237.8928,51.9014,308.2145,-4.503899999999999e-05,-1.005e-05,0.0,0 STARLINK-3949,1 52555U 22051Y   22302.56489944 -.00001005  00000-0 -45039-4 0  9993,2 52555  53.2195 237.8928 0001851  51.9014 308.2145 15.08850200 26193,6917.849,95.437,540.995,538.434,0.0
52555.0,STARLINK-3949,PAYLOAD,2022-10-30 02:16:32,15.08841285,0.0001609,53.219,235.5134,54.6743,305.44,-4.5342e-05,-1.01e-05,0.0,0 STARLINK-3949,1 52555U 22051Y   22303.09482215 -.00001010  00000-0 -45342-4 0  9999,2 52555  53.2190 235.5134 0001609  54.6743 305.4400 15.08841285 26277,6917.876,95.437,540.855,538.628,0.0
52555.0,STARLINK-3949,PAYLOAD,2022-10-30 19:45:47,15.08836639,0.0001710999999999,53.219,232.2424,55.3095,304.8058,-2.485e-06,-3.28e-06,0.0,0 STARLINK-3949,1 52555U 22051Y   22303.82346301 -.00000328  00000-0 -24850-5 0  9998,2 52555  53.2190 232.2424 0001711  55.3095 304.8058 15.08836639 26386,6917.891,95.438,540.939,538.572,0.0
52555.0,STARLINK-3949,PAYLOAD,2022-10-31 05:18:06,15.08831301,0.0001794,53.2195,230.459,52.2989,307.8165,-1.1959e-05,-4.78e-06,0.0,0 STARLINK-3949,1 52555U 22051Y   22304.22090734 -.00000478  00000-0 -11959-4 0  9990,2 52555  53.2195 230.4590 0001794  52.2989 307.8165 15.08831301 26444,6917.906999999997,95.438,541.013,538.531,0.0
52555.0,STARLINK-3949,PAYLOAD,2022-10-31 19:36:35,15.08823517,0.0001728,53.2189,227.7839,54.7518,305.3635,-6.6353e-05,-1.343e-05,0.0,0 STARLINK-3949,1 52555U 22051Y   22304.81707745 -.00001343  00000-0 -66353-4 0  9992,2 52555  53.2189 227.7839 0001728  54.7518 305.3635 15.08823517 26539,6917.931,95.439,540.991,538.6,0.0
52555.0,STARLINK-3949,PAYLOAD,2022-11-01 05:08:54,15.08820831,0.0001766,53.219,225.9997,52.1268,307.9884,-2.762e-05,-7.27e-06,0.0,0 STARLINK-3949,1 52555U 22051Y   22305.21452227 -.00000727  00000-0 -27620-4 0  9998,2 52555  53.2190 225.9997 0001766  52.1268 307.9884 15.08820831 26598,6917.939,95.439,541.026,538.582,0.0
52555.0,STARLINK-3949,PAYLOAD,2022-11-01 19:27:22,15.088368,0.0001626999999999,53.2188,223.3229,49.2204,310.8929,8.847e-05,1.12e-05,0.0,0 STARLINK-3949,1 52555U 22051Y   22305.81067191  .00001120  00000-0  88470-4 0  9992,2 52555  53.2188 223.3229 0001627  49.2204 310.8929 15.08836800 26752,6917.89,95.438,540.881,538.63,0.0
52555.0,STARLINK-3949,PAYLOAD,2022-11-02 11:21:13,15.08835216,0.0001901,53.2198,220.3494,51.4669,308.6494,0.00010146,1.327e-05,0.0,0 STARLINK-3949,1 52555U 22051Y   22306.47307539  .00001327  00000-0  10146-3 0  9991,2 52555  53.2198 220.3494 0001901  51.4669 308.6494 15.08835216 26784,6917.895,95.438,541.075,538.445,0.0
52555.0,STARLINK-3949,PAYLOAD,2022-11-03 03:15:05,15.08829399,0.0001842,53.2191,217.3771,54.0568,306.0595,0.00013872,1.92e-05,0.0,0 STARLINK-3949,1 52555U 22051Y   22307.13548428  .00001920  00000-0  13872-3 0  9997,2 52555  53.2191 217.3771 0001842  54.0568 306.0595 15.08829399 26950,6917.913000000001,95.438,541.052,538.504,0.0
52555.0,STARLINK-3949,PAYLOAD,2022-11-04 01:30:27,15.08847431,0.0001848,53.2192,213.21400000000003,55.334,304.7826,0.00041113,6.262e-05,0.0,0 STARLINK-3949,1 52555U 22051Y   22308.06281877  .00006262  00000-0  41113-3 0  9995,2 52555  53.2192 213.2140 0001848  55.3340 304.7826 15.08847431 27099,6917.858,95.437,541.001,538.444,0.0
